[{"OBJECT_NAME":"TEVEL2-2","OBJECT_ID":"2025-052K","EPOCH":"2026-03-09T15:33:48.895776","MEAN_MOTION":15.30343745,"ECCENTRICITY":0.0004693,"INCLINATION":97.3987,"RA_OF_ASC_NODE":324.77,"ARG_OF_PERICENTER":105.793,"MEAN_ANOMALY":254.3828,"EPHEMERIS_TYPE":0,"CLASSIFICATION_TYPE":"U","NORAD_CAT_ID":63219,"ELEMENT_SET_NO":999,"REV_AT_EPOCH":5485,"BSTAR":0.00069428,"MEAN_MOTION_DOT":0.00020339,"MEAN_MOTION_DDOT":0},{"OBJECT_NAME":"STARLINK-33957","OBJECT_ID":"2025-095H","EPOCH":"2026-03-08T09:03:27.123264","MEAN_MOTION":15.2757745,"ECCENTRICITY":0.00015399,"INCLINATION":43.0035,"RA_OF_ASC_NODE":183.9355,"ARG_OF_PERICENTER":241.4171,"MEAN_ANOMALY":118.6526,"EPHEMERIS_TYPE":0,"CLASSIFICATION_TYPE":"U","NORAD_CAT_ID":63897,"ELEMENT_SET_NO":999,"REV_AT_EPOCH":4757,"BSTAR":0.0018583728,"MEAN_MOTION_DOT":0.00051228,"MEAN_MOTION_DDOT":0}]
